[{"OBJECT_NAME":"STARLINK-2655","OBJECT_ID":"2021-040X","EPOCH":"2026-03-09T13:34:27.715584","MEAN_MOTION":15.3019658,"ECCENTRICITY":0.0001428,"INCLINATION":53.1635,"RA_OF_ASC_NODE":178.7122,"ARG_OF_PERICENTER":91.6237,"MEAN_ANOMALY":268.4927,"EPHEMERIS_TYPE":0,"CLASSIFICATION_TYPE":"U","NORAD_CAT_ID":48449,"ELEMENT_SET_NO":999,"REV_AT_EPOCH":26666,"BSTAR":-2.498e-6,"MEAN_MOTION_DOT":-4.33e-6,"MEAN_MOTION_DDOT":0},{"OBJECT_NAME":"TEVEL2-2","OBJECT_ID":"2025-052K","EPOCH":"2026-03-09T15:33:48.895776","MEAN_MOTION":15.30343745,"ECCENTRICITY":0.0004693,"INCLINATION":97.3987,"RA_OF_ASC_NODE":324.77,"ARG_OF_PERICENTER":105.793,"MEAN_ANOMALY":254.3828,"EPHEMERIS_TYPE":0,"CLASSIFICATION_TYPE":"U","NORAD_CAT_ID":63219,"ELEMENT_SET_NO":999,"REV_AT_EPOCH":5485,"BSTAR":0.00069428,"MEAN_MOTION_DOT":0.00020339,"MEAN_MOTION_DDOT":0}]
